{
    "links": {
        "self": "http://www.neowsapp.com/rest/v1/neo/3827567?api_key=iIulBulltgU6a56xZRHN4H3l9WmuAYTsLGpBGhQ2"
    },
    "id": "3827567",
    "neo_reference_id": "3827567",
    "name": "(2018 RM4)",
    "designation": "2018 RM4",
    "nasa_jpl_url": "http://ssd.jpl.nasa.gov/sbdb.cgi?sstr=3827567",
    "absolute_magnitude_h": 25.6,
    "estimated_diameter": {
        "kilometers": {
            "estimated_diameter_min": 0.0201629919,
            "estimated_diameter_max": 0.0450858206
        },
        "meters": {
            "estimated_diameter_min": 20.1629919443,
            "estimated_diameter_max": 45.0858206172
        },
        "miles": {
            "estimated_diameter_min": 0.0125286985,
            "estimated_diameter_max": 0.0280150214
        },
        "feet": {
            "estimated_diameter_min": 66.1515504905,
            "estimated_diameter_max": 147.9193637137
        }
    },
    "is_potentially_hazardous_asteroid": false,
    "close_approach_data": [
        {
            "close_approach_date": "2018-09-18",
            "close_approach_date_full": "2018-Sep-18 17:32",
            "epoch_date_close_approach": 1537291920000,
            "relative_velocity": {
                "kilometers_per_second": "11.172047157",
                "kilometers_per_hour": "40219.3697653595",
                "miles_per_hour": "24990.7522855924"
            },
            "miss_distance": {
                "astronomical": "0.0282142322",
                "lunar": "10.9753363258",
                "kilometers": "4220789.040805414",
                "miles": "2622676.6948221532"
            },
            "orbiting_body": "Earth"
        }
    ],
    "orbital_data": {
        "orbit_id": "2",
        "orbit_determination_date": "2018-09-14 07:27:49",
        "first_observation_date": "2018-09-10",
        "last_observation_date": "2018-09-14",
        "data_arc_in_days": 4,
        "observations_used": 34,
        "orbit_uncertainty": "8",
        "minimum_orbit_intersection": ".00597474",
        "jupiter_tisserand_invariant": "3.415",
        "epoch_osculation": "2458372.5",
        "eccentricity": ".5851495472701211",
        "semi_major_axis": "2.205606028724214",
        "inclination": "1.592564016419957",
        "ascending_node_longitude": "241.5341816416189",
        "orbital_period": "1196.438382835759",
        "perihelion_distance": ".9149966595599902",
        "perihelion_argument": "156.4111626503391",
        "aphelion_distance": "3.496215397888437",
        "perihelion_time": "2458411.796036070772",
        "mean_anomaly": "348.1760956615683",
        "mean_motion": ".3008930548907499",
        "equinox": "J2000",
        "orbit_class": {
            "orbit_class_type": "APO",
            "orbit_class_description": "Near-Earth asteroid orbits which cross the Earth’s orbit similar to that of 1862 Apollo",
            "orbit_class_range": "a (semi-major axis) > 1.0 AU; q (perihelion) < 1.017 AU"
        }
    },
    "is_sentry_object": false
}